[
    {
        "Altitude(m)": 612513.9593851686,
        "Argument of Periapsis(deg)": 0.0,
        "Eccentricity": 0.0,
        "Inclination(deg)": 60.0,
        "Latitude(deg)": -28.136053128813007,
        "Longitude(deg)": -67.0868669937138,
        "Mean Anomaly(deg)": -147.27269999999996,
        "RAAN(deg)": 195.00000000000003,
        "Satellite Name": "Test1 871",
        "Satellite Number": 871,
        "Semi-Major Axis(m)": 6980739.136638005,
        "Time(s)": 0
    },
    {
        "Altitude(m)": 612708.3276199078,
        "Argument of Periapsis(deg)": 0.00010418945913296404,
        "Eccentricity": 0.0,
        "Inclination(deg)": 60.0,
        "Latitude(deg)": -28.647792064646378,
        "Longitude(deg)": -66.7296359233122,
        "Mean Anomaly(deg)": -146.65259385453817,
        "RAAN(deg)": 194.99957995086024,
        "Satellite Name": "Test1 871",
        "Satellite Number": 871,
        "Semi-Major Axis(m)": 6980739.136638005,
        "Time(s)": 10
    }
]